{
 "generated_at": "2026-07-14T07:10:30Z",
 "sources": [
  {
   "name": "CelesTrak",
   "url": "https://celestrak.org/NORAD/elements/",
   "license": "frei verfügbar; Attribution. Ursprünglich USSPACECOM/Space-Track."
  },
  {
   "name": "GCAT (J. McDowell, planet4589.org)",
   "url": "https://planet4589.org/space/gcat/",
   "license": "CC-BY 4.0"
  }
 ],
 "satellites": [
  {
   "norad": 58990,
   "name": "INSAT-3DS",
   "intl": "2024-033A",
   "group": "weather",
   "gcat": {
    "class": "C",
    "category": "MET",
    "owner": "ISRO",
    "state": "IN"
   },
   "omm": {
    "OBJECT_NAME": "INSAT-3DS",
    "OBJECT_ID": "2024-033A",
    "EPOCH": "2026-07-13T20:41:53.279808",
    "MEAN_MOTION": 1.00271008,
    "ECCENTRICITY": 0.0001036,
    "INCLINATION": 0.0951,
    "RA_OF_ASC_NODE": 264.9709,
    "ARG_OF_PERICENTER": 225.3823,
    "MEAN_ANOMALY": 193.9225,
    "EPHEMERIS_TYPE": 0,
    "CLASSIFICATION_TYPE": "U",
    "NORAD_CAT_ID": 58990,
    "ELEMENT_SET_NO": 999,
    "REV_AT_EPOCH": 4733,
    "BSTAR": 0,
    "MEAN_MOTION_DOT": -0.00000161,
    "MEAN_MOTION_DDOT": 0
   }
  },
  {
   "norad": 61735,
   "name": "IONOSFERA-M 1",
   "intl": "2024-199A",
   "group": "resource",
   "gcat": {
    "class": "C",
    "category": "SCI",
    "owner": "VNIIEMI",
    "state": "RU"
   },
   "omm": {
    "OBJECT_NAME": "IONOSFERA-M 1",
    "OBJECT_ID": "2024-199A",
    "EPOCH": "2026-07-13T20:20:04.457184",
    "MEAN_MOTION": 14.22758946,
    "ECCENTRICITY": 0.0002179,
    "INCLINATION": 98.7137,
    "RA_OF_ASC_NODE": 67.7337,
    "ARG_OF_PERICENTER": 74.6699,
    "MEAN_ANOMALY": 285.4719,
    "EPHEMERIS_TYPE": 0,
    "CLASSIFICATION_TYPE": "U",
    "NORAD_CAT_ID": 61735,
    "ELEMENT_SET_NO": 999,
    "REV_AT_EPOCH": 13149,
    "BSTAR": 0.000032037,
    "MEAN_MOTION_DOT": 2.8e-7,
    "MEAN_MOTION_DDOT": 0
   }
  },
  {
   "norad": 61736,
   "name": "IONOSFERA-M 2",
   "intl": "2024-199B",
   "group": "resource",
   "gcat": {
    "class": "C",
    "category": "SCI",
    "owner": "VNIIEMI",
    "state": "RU"
   },
   "omm": {
    "OBJECT_NAME": "IONOSFERA-M 2",
    "OBJECT_ID": "2024-199B",
    "EPOCH": "2026-07-13T19:28:05.946816",
    "MEAN_MOTION": 14.22762313,
    "ECCENTRICITY": 0.0000445,
    "INCLINATION": 98.7136,
    "RA_OF_ASC_NODE": 67.6084,
    "ARG_OF_PERICENTER": 120.1877,
    "MEAN_ANOMALY": 239.9345,
    "EPHEMERIS_TYPE": 0,
    "CLASSIFICATION_TYPE": "U",
    "NORAD_CAT_ID": 61736,
    "ELEMENT_SET_NO": 999,
    "REV_AT_EPOCH": 13461,
    "BSTAR": 0.000032414,
    "MEAN_MOTION_DOT": 2.9e-7,
    "MEAN_MOTION_DDOT": 0
   }
  },
  {
   "norad": 64876,
   "name": "IONOSFERA-M 3",
   "intl": "2025-155A",
   "group": "resource",
   "gcat": {
    "class": "C",
    "category": "SCI",
    "owner": "VNIIEMI",
    "state": "RU"
   },
   "omm": {
    "OBJECT_NAME": "IONOSFERA-M 3",
    "OBJECT_ID": "2025-155A",
    "EPOCH": "2026-07-13T20:27:55.376064",
    "MEAN_MOTION": 14.21490714,
    "ECCENTRICITY": 0.0002245,
    "INCLINATION": 98.6039,
    "RA_OF_ASC_NODE": 156.0886,
    "ARG_OF_PERICENTER": 114.4171,
    "MEAN_ANOMALY": 245.7241,
    "EPHEMERIS_TYPE": 0,
    "CLASSIFICATION_TYPE": "U",
    "NORAD_CAT_ID": 64876,
    "ELEMENT_SET_NO": 999,
    "REV_AT_EPOCH": 5019,
    "BSTAR": 0.000024548,
    "MEAN_MOTION_DOT": 1.1e-7,
    "MEAN_MOTION_DDOT": 0
   }
  },
  {
   "norad": 64877,
   "name": "IONOSFERA-M 4",
   "intl": "2025-155B",
   "group": "resource",
   "gcat": {
    "class": "C",
    "category": "SCI",
    "owner": "VNIIEMI",
    "state": "RU"
   },
   "omm": {
    "OBJECT_NAME": "IONOSFERA-M 4",
    "OBJECT_ID": "2025-155B",
    "EPOCH": "2026-07-13T21:18:01.728000",
    "MEAN_MOTION": 14.21493133,
    "ECCENTRICITY": 0.00018,
    "INCLINATION": 98.6038,
    "RA_OF_ASC_NODE": 156.0397,
    "ARG_OF_PERICENTER": 100.9887,
    "MEAN_ANOMALY": 259.1493,
    "EPHEMERIS_TYPE": 0,
    "CLASSIFICATION_TYPE": "U",
    "NORAD_CAT_ID": 64877,
    "ELEMENT_SET_NO": 999,
    "REV_AT_EPOCH": 5019,
    "BSTAR": 0.000021913,
    "MEAN_MOTION_DOT": 5e-8,
    "MEAN_MOTION_DDOT": 0
   }
  },
  {
   "norad": 28649,
   "name": "IRS-P5 (CARTOSAT-1)",
   "intl": "2005-017A",
   "group": "resource",
   "gcat": {
    "class": null,
    "category": null,
    "owner": null,
    "state": null
   },
   "omm": {
    "OBJECT_NAME": "IRS-P5 (CARTOSAT-1)",
    "OBJECT_ID": "2005-017A",
    "EPOCH": "2026-07-13T15:39:50.264640",
    "MEAN_MOTION": 14.9111483,
    "ECCENTRICITY": 0.0001482,
    "INCLINATION": 97.5307,
    "RA_OF_ASC_NODE": 216.5165,
    "ARG_OF_PERICENTER": 55.3068,
    "MEAN_ANOMALY": 304.829,
    "EPHEMERIS_TYPE": 0,
    "CLASSIFICATION_TYPE": "U",
    "NORAD_CAT_ID": 28649,
    "ELEMENT_SET_NO": 999,
    "REV_AT_EPOCH": 14776,
    "BSTAR": 0.000066278,
    "MEAN_MOTION_DOT": 0.00000605,
    "MEAN_MOTION_DDOT": 0
   }
  },
  {
   "norad": 41240,
   "name": "JASON-3",
   "intl": "2016-002A",
   "group": "resource",
   "gcat": {
    "class": "C",
    "category": "SCI/MET",
    "owner": "CNES/NOAA",
    "state": "F"
   },
   "omm": {
    "OBJECT_NAME": "JASON-3",
    "OBJECT_ID": "2016-002A",
    "EPOCH": "2026-07-13T21:02:13.615008",
    "MEAN_MOTION": 12.87628572,
    "ECCENTRICITY": 0.0008196,
    "INCLINATION": 66.0416,
    "RA_OF_ASC_NODE": 69.7248,
    "ARG_OF_PERICENTER": 271.0448,
    "MEAN_ANOMALY": 88.9632,
    "EPHEMERIS_TYPE": 0,
    "CLASSIFICATION_TYPE": "U",
    "NORAD_CAT_ID": 41240,
    "ELEMENT_SET_NO": 999,
    "REV_AT_EPOCH": 49068,
    "BSTAR": 0.00015784,
    "MEAN_MOTION_DOT": -2.2e-7,
    "MEAN_MOTION_DDOT": 0
   }
  },
  {
   "norad": 39731,
   "name": "KAZEOSAT 1",
   "intl": "2014-024A",
   "group": "resource",
   "gcat": {
    "class": "C",
    "category": "IMG",
    "owner": "KAZK",
    "state": "KZ"
   },
   "omm": {
    "OBJECT_NAME": "KAZEOSAT 1",
    "OBJECT_ID": "2014-024A",
    "EPOCH": "2026-07-13T19:18:22.318272",
    "MEAN_MOTION": 14.42036735,
    "ECCENTRICITY": 0.000125,
    "INCLINATION": 98.3205,
    "RA_OF_ASC_NODE": 266.5879,
    "ARG_OF_PERICENTER": 81.1285,
    "MEAN_ANOMALY": 279.0046,
    "EPHEMERIS_TYPE": 0,
    "CLASSIFICATION_TYPE": "U",
    "NORAD_CAT_ID": 39731,
    "ELEMENT_SET_NO": 999,
    "REV_AT_EPOCH": 64239,
    "BSTAR": 0.000022842,
    "MEAN_MOTION_DOT": 3.2e-7,
    "MEAN_MOTION_DDOT": 0
   }
  },
  {
   "norad": 40010,
   "name": "KAZEOSAT 2",
   "intl": "2014-033A",
   "group": "resource",
   "gcat": {
    "class": "C",
    "category": "IMG",
    "owner": "KAZK",
    "state": "KZ"
   },
   "omm": {
    "OBJECT_NAME": "KAZEOSAT 2",
    "OBJECT_ID": "2014-033A",
    "EPOCH": "2026-07-13T20:05:25.859904",
    "MEAN_MOTION": 14.85499019,
    "ECCENTRICITY": 0.0007346,
    "INCLINATION": 97.5395,
    "RA_OF_ASC_NODE": 33.04,
    "ARG_OF_PERICENTER": 224.7585,
    "MEAN_ANOMALY": 135.3039,
    "EPHEMERIS_TYPE": 0,
    "CLASSIFICATION_TYPE": "U",
    "NORAD_CAT_ID": 40010,
    "ELEMENT_SET_NO": 999,
    "REV_AT_EPOCH": 65291,
    "BSTAR": 0.000056175,
    "MEAN_MOTION_DOT": 0.00000435,
    "MEAN_MOTION_DDOT": 0
   }
  },
  {
   "norad": 43783,
   "name": "KAZSTSAT",
   "intl": "2018-099AB",
   "group": "resource",
   "gcat": {
    "class": "B",
    "category": "IMG",
    "owner": "GHALAM",
    "state": "KZ"
   },
   "omm": {
    "OBJECT_NAME": "KAZSTSAT",
    "OBJECT_ID": "2018-099AB",
    "EPOCH": "2026-07-13T07:34:16.231296",
    "MEAN_MOTION": 14.9995317,
    "ECCENTRICITY": 0.00074587,
    "INCLINATION": 97.4319,
    "RA_OF_ASC_NODE": 225.0657,
    "ARG_OF_PERICENTER": 348.5127,
    "MEAN_ANOMALY": 11.5926,
    "EPHEMERIS_TYPE": 0,
    "CLASSIFICATION_TYPE": "U",
    "NORAD_CAT_ID": 43783,
    "ELEMENT_SET_NO": 999,
    "REV_AT_EPOCH": 41522,
    "BSTAR": 0.000058934387,
    "MEAN_MOTION_DOT": 0.00000676,
    "MEAN_MOTION_DDOT": 0
   }
  }
 ]
}
